GALAXY 3C (G-3C)        
1 27445U 02030A   26160.45915583 -.00000136  00000+0  00000+0 0  9991
2 27445   3.7102  78.0778 0001738  31.9492 218.2554  1.00271650 46415
INTELSAT 906 (IS-906)   
1 27513U 02041A   26160.29072390  .00000029  00000+0  00000+0 0  9991
2 27513   5.7837  73.0175 0004648 359.0917 354.3483  1.00271320 86942
NIMIQ 2                 
1 27632U 02062A   26160.34404644 -.00000056  00000+0  00000+0 0  9994
2 27632   9.4274  56.9820 0005623  18.0058 197.3955  1.00271859 44107
USA 167                 
1 27691U 03008A   26160.11900797  .00000015  00000+0  00000+0 0  9999
2 27691  10.9447  43.4790 0003872 314.1375 181.0057  1.00273864  6697
USA 169 (MILSTAR-2 4)   
1 27711U 03012A   26160.54039829 -.00000219  00000+0  00000+0 0  9990
2 27711  12.3375  29.9016 0100904   8.8784 205.7962  1.00270148 32871
ASIASAT 4               
1 27718U 03014A   26160.51869519 -.00000206  00000+0  00000+0 0  9999
2 27718   4.6857  75.8414 0002940   5.0942 151.2301  1.00272259 45225
HELLAS-SAT 2            
1 27811U 03020A   26160.09211583 -.00000069  00000+0  00000+0 0  9992
2 27811   7.3336  67.9800 0002627   9.6934 202.9523  1.00271392 42768
THURAYA-2               
1 27825U 03026A   26159.78125000  .00000137  00000+0  00000+0 0  9990
2 27825   8.8257  32.0302 0003152   6.3511 184.0331  1.00273078 84261
OPTUS C1                
1 27831U 03028B   26160.50283058 -.00000136  00000+0  00000+0 0  9999
2 27831   6.8695  69.5019 0005666   8.3743 156.7323  1.00273531 52988
USA 170                 
1 27875U 03040A   26159.92914766  .00000139  00000+0  00000+0 0  9994
2 27875  10.4821  48.0247 0001887  33.6399 174.4630  1.00277144 32915
GALAXY 13 (HORIZONS-1)  
1 27954U 03044A   26160.53858778  .00000150  00000+0  00000+0 0  9998
2 27954   1.4004  83.9525 0002106 350.9821 226.8645  1.00273791 46493
YAMAL 202               
1 28089U 03053A   26160.53296669 -.00000064  00000+0  00000+0 0  9998
2 28089   6.3245  71.0308 0003387 355.1726 187.1711  1.00273114 82621
UFO 11 (USA 174)        
1 28117U 03057A   26160.16816817 -.00000093  00000+0  00000+0 0  9998
2 28117   8.9357  33.8711 0002515  44.6411 315.1349  1.00274033 82364
USA 176 (DSP 22)        
1 28158U 04004A   26160.47440551 -.00000283  00000+0  00000+0 0  9999
2 28158  12.0514  26.1252 0001122 296.1432  55.4073  1.00407682 32850
ABS-4 (MOBISAT-1)       
1 28184U 04007A   26160.05218174  .00000055  00000+0  00000+0 0  9995
2 28184   6.0220  72.1057 0005163   3.3931 261.6678  1.00271507 52254
INTELSAT 10-02          
1 28358U 04022A   26160.05649573  .00000005  00000+0  00000+0 0  9991
2 28358   0.0151 336.1514 0000525 195.6343 104.9809  1.00269264 80471
ANIK F2                 
1 28378U 04027A   26160.46584560 -.00000033  00000+0  00000+0 0  9999
2 28378   3.2660  79.5492 0004262   3.8746 230.9959  1.00271767 41187
AMC-15                  
1 28446U 04041A   26160.46365535 -.00000072  00000+0  00000+0 0  9993
2 28446   0.0292 305.4977 0002275 137.7701 236.4447  1.00272011 79220
NSS-10                  
1 28526U 05003A   26160.29627882 -.00000236  00000+0  00000+0 0  9990
2 28526   6.4288  70.5485 0002920   8.7478 247.5917  1.00271162 53079
INMARSAT 4-F1           
1 28628U 05009A   26160.49435087  .00000048  00000+0  00000+0 0  9995
2 28628   5.1570  42.7396 0002662  37.9459 173.2742  1.00272088 77592
DIRECTV 8               
1 28659U 05019A   26160.46853581  .00000018  00000+0  00000+0 0  9997
2 28659   0.0181   9.3971 0002947  72.1110 225.9611  1.00271703 76993
GALAXY 28 (G-28)        
1 28702U 05022A   26160.47908553 -.00000183  00000+0  00000+0 0  9995
2 28702   3.2797  79.0257 0002845 355.1652 329.0288  1.00272250 51899
THAICOM 4               
1 28786U 05028A   26160.43678720 -.00000345  00000+0  00000+0 0  9999
2 28786   0.2244  86.0165 0001841 345.6961 102.8524  1.00271749 52177
ANIK F1R                
1 28868U 05036A   26160.46451427 -.00000059  00000+0  00000+0 0  9997
2 28868   4.2919  76.6745 0004248   5.9828 235.1378  1.00272461 46376
SYRACUSE 3A             
1 28885U 05041B   26160.49363234  .00000145  00000+0  00000+0 0  9998
2 28885   4.6240  75.9318 0003092 340.8220  65.4537  1.00271612 75670
INMARSAT 4-F2           
1 28899U 05044A   26160.51284786 -.00000246  00000+0  00000+0 0  9996
2 28899   5.0839  43.7021 0002928  32.7609 149.5421  1.00272088 75442
METEOSAT-9 (MSG-2)      
1 28912U 05049B   26159.85178779  .00000137  00000+0  00000+0 0  9994
2 28912   9.3416  54.2478 0001703 351.0293 204.2846  1.00268877  6912
EUTELSAT 174A           
1 28924U 05052A   26160.49581433  .00000025  00000+0  00000+0 0  9994
2 28924   4.1990  76.6205 0006307   2.2628 171.4609  1.00269872 52259
ECHOSTAR 10             
1 28935U 06003A   26160.34497946 -.00000039  00000+0  00000+0 0  9998
2 28935   0.0179   3.1708 0001965  42.7522 225.8175  1.00271309 74383
SPAINSAT                
1 28945U 06007A   26160.36801943 -.00000200  00000+0  00000+0 0  9991
2 28945   0.5418  86.6759 0004860 350.2145 283.1742  1.00272068 74135
JCSAT-5A                
1 29045U 06010A   26160.51059454 -.00000311  00000+0  00000+0 0  9999
2 29045   1.0885  84.3068 0002049  13.3488 116.0787  1.00269297 73696
ASTRA 1KR               
1 29055U 06012A   26160.48809890  .00000136  00000+0  00000+0 0  9999
2 29055   0.4529  83.2039 0003451 354.1390  15.2384  1.00272751 45621
