OBJECT_NAME,OBJECT_ID,EPOCH,MEAN_MOTION,ECCENTRICITY,INCLINATION,RA_OF_ASC_NODE,ARG_OF_PERICENTER,MEAN_ANOMALY,EPHEMERIS_TYPE,CLASSIFICATION_TYPE,NORAD_CAT_ID,ELEMENT_SET_NO,REV_AT_EPOCH,BSTAR,MEAN_MOTION_DOT,MEAN_MOTION_DDOT
GALAXY 3C (G-3C),2002-030A,2026-06-09T11:01:11.063712,1.00271650,.0001738,3.7102,78.0778,31.9492,218.2554,0,U,27445,999,4641,0,-.136E-5,0
INTELSAT 906 (IS-906),2002-041A,2026-06-09T06:58:38.544960,1.00271320,.0004648,5.7837,73.0175,359.0917,354.3483,0,U,27513,999,8694,0,.29E-6,0
NIMIQ 2,2002-062A,2026-06-09T08:15:25.612416,1.00271859,.0005623,9.4274,56.9820,18.0058,197.3955,0,U,27632,999,4410,0,-.56E-6,0
USA 167,2003-008A,2026-06-09T02:51:22.288608,1.00273864,.0003872,10.9447,43.4790,314.1375,181.0057,0,U,27691,999,669,0,.15E-6,0
USA 169 (MILSTAR-2 4),2003-012A,2026-06-09T12:58:10.412256,1.00270148,.0100904,12.3375,29.9016,8.8784,205.7962,0,U,27711,999,3287,0,-.219E-5,0
ASIASAT 4,2003-014A,2026-06-09T12:26:55.264416,1.00272259,.000294,4.6857,75.8414,5.0942,151.2301,0,U,27718,999,4522,0,-.206E-5,0
HELLAS-SAT 2,2003-020A,2026-06-09T02:12:38.807712,1.00271392,.00026278,7.3336,67.9800,9.6934,202.9523,0,U,27811,999,4276,0,-.69E-6,0
THURAYA-2,2003-026A,2026-06-08T18:45:00.000000,1.00273078,.00031526,8.8257,32.0302,6.3511,184.0331,0,U,27825,999,8426,0,.137E-5,0
OPTUS C1,2003-028B,2026-06-09T12:04:04.562112,1.00273531,.0005666,6.8695,69.5019,8.3743,156.7323,0,U,27831,999,5298,0,-.136E-5,0
USA 170,2003-040A,2026-06-08T22:17:58.357824,1.00277144,.0001887,10.4821,48.0247,33.6399,174.4630,0,U,27875,999,3291,0,.139E-5,0
GALAXY 13 (HORIZONS-1),2003-044A,2026-06-09T12:55:33.984192,1.00273791,.0002106,1.4004,83.9525,350.9821,226.8645,0,U,27954,999,4649,0,.15E-5,0
YAMAL 202,2003-053A,2026-06-09T12:47:28.322016,1.00273114,.0003387,6.3245,71.0308,355.1726,187.1711,0,U,28089,999,8262,0,-.64E-6,0
UFO 11 (USA 174),2003-057A,2026-06-09T04:02:09.729888,1.00274033,.0002515,8.9357,33.8711,44.6411,315.1349,0,U,28117,999,8236,0,-.93E-6,0
USA 176 (DSP 22),2004-004A,2026-06-09T11:23:08.636064,1.00407682,.0001122,12.0514,26.1252,296.1432,55.4073,0,U,28158,999,3285,0,-.283E-5,0
ABS-4 (MOBISAT-1),2004-007A,2026-06-09T01:15:08.502336,1.00271507,.0005163,6.0220,72.1057,3.3931,261.6678,0,U,28184,999,5225,0,.55E-6,0
INTELSAT 10-02,2004-022A,2026-06-09T01:21:21.231072,1.00269264,.00005251,0.0151,336.1514,195.6343,104.9809,0,U,28358,999,8047,0,.5E-7,0
ANIK F2,2004-027A,2026-06-09T11:10:49.059840,1.00271767,.0004262,3.2660,79.5492,3.8746,230.9959,0,U,28378,999,4118,0,-.33E-6,0
AMC-15,2004-041A,2026-06-09T11:07:39.822240,1.00272011,.0002275,0.0292,305.4977,137.7701,236.4447,0,U,28446,999,7922,0,-.72E-6,0
NSS-10,2005-003A,2026-06-09T07:06:38.490048,1.00271162,.000292,6.4288,70.5485,8.7478,247.5917,0,U,28526,999,5307,0,-.236E-5,0
INMARSAT 4-F1,2005-009A,2026-06-09T11:51:51.915168,1.00272088,.0002662,5.1570,42.7396,37.9459,173.2742,0,U,28628,999,7759,0,.48E-6,0
DIRECTV 8,2005-019A,2026-06-09T11:14:41.493984,1.00271703,.0002947,0.0181,9.3971,72.1110,225.9611,0,U,28659,999,7699,0,.18E-6,0
GALAXY 28 (G-28),2005-022A,2026-06-09T11:29:52.989792,1.00272250,.0002845,3.2797,79.0257,355.1652,329.0288,0,U,28702,999,5189,0,-.183E-5,0
THAICOM 4,2005-028A,2026-06-09T10:28:58.414080,1.00271749,.0001841,0.2244,86.0165,345.6961,102.8524,0,U,28786,999,5217,0,-.345E-5,0
ANIK F1R,2005-036A,2026-06-09T11:08:54.032928,1.00272461,.0004248,4.2919,76.6745,5.9828,235.1378,0,U,28868,999,4637,0,-.59E-6,0
SYRACUSE 3A,2005-041B,2026-06-09T11:50:49.834176,1.00271612,.0003092,4.6240,75.9318,340.8220,65.4537,0,U,28885,999,7567,0,.145E-5,0
INMARSAT 4-F2,2005-044A,2026-06-09T12:18:30.055104,1.00272088,.0002928,5.0839,43.7021,32.7609,149.5421,0,U,28899,999,7544,0,-.246E-5,0
METEOSAT-9 (MSG-2),2005-049B,2026-06-08T20:26:34.465056,1.00268877,.0001703,9.3416,54.2478,351.0293,204.2846,0,U,28912,999,691,0,.137E-5,0
EUTELSAT 174A,2005-052A,2026-06-09T11:53:58.358112,1.00269872,.0006307,4.1990,76.6205,2.2628,171.4609,0,U,28924,999,5225,0,.25E-6,0
ECHOSTAR 10,2006-003A,2026-06-09T08:16:46.225344,1.00271309,.0001965,0.0179,3.1708,42.7522,225.8175,0,U,28935,999,7438,0,-.39E-6,0
SPAINSAT,2006-007A,2026-06-09T08:49:56.878752,1.00272068,.000486,0.5418,86.6759,350.2145,283.1742,0,U,28945,999,7413,0,-.2E-5,0
JCSAT-5A,2006-010A,2026-06-09T12:15:15.368256,1.00269297,.0002049,1.0885,84.3068,13.3488,116.0787,0,U,29045,999,7369,0,-.311E-5,0
ASTRA 1KR,2006-012A,2026-06-09T11:42:51.744960,1.00272751,.0003451,0.4529,83.2039,354.1390,15.2384,0,U,29055,999,4562,0,.136E-5,0
